# From MPEC 2023-RF3
80P/Peters-Hartley,e,29.9233,259.7860,339.2681,4.022768,0.1221565,0.59828663,52.5520,02/12.0/2024,2000,g  9.0,8.0
# From MPEC 2024-C04
81P/Wild,e,3.2367,136.0938,41.5946,3.453009,0.1536058,0.53725742,65.0399,02/12.0/2024,2000,g  7.0,6.0
# From MPC133426
82P/Gehrels,e,1.1291,239.2360,226.4102,4.132357,0.1173295,0.12240404,241.7207,02/12.0/2024,2000,g 15.0,4.0
# From NK 932
83D/Russell,e,17.8258,226.3068,334.4368,3.843960,0.1307783,0.44140260,130.1814,02/12.0/2024,2000,g  9.0,4.0
# From MPEC 2020-FB5
84P/Giclas,e,7.5511,108.1639,281.6424,3.550090,0.1473482,0.51604508,198.4997,02/12.0/2024,2000,g  9.5,8.0
# From unp
85D/Boethin,e,4.1742,65.2841,333.0681,5.043911,0.0870067,0.77631056,112.3890,02/12.0/2024,2000,g  6.5,8.0
# From MPEC 2022-YB4
86P/Wild,e,15.5075,72.1408,180.3759,3.619770,0.1431142,0.37115166,104.9278,02/12.0/2024,2000,g 11.0,6.0
# From MPEC 2020-SI8
87P/Bus,e,2.7597,187.2541,50.6687,4.263594,0.1119542,0.24415654,154.3507,02/12.0/2024,2000,g  7.2,10.0
# From MPEC 2024-C04
88P/Howell,e,4.3820,56.6659,235.9257,3.107094,0.1799586,0.56325076,222.1702,02/12.0/2024,2000,g 11.0,6.0
# From MPEC 2023-J29
89P/Russell,e,12.0721,41.3459,250.4007,3.751955,0.1356181,0.40781717,354.0863,02/12.0/2024,2000,g 11.5,6.0
# From MPEC 2022-K19
90P/Gehrels,e,9.6487,13.2164,29.1043,6.051943,0.0662006,0.51113305,160.5161,02/12.0/2024,2000,g  8.5,6.0
# From MPEC 2023-VM5
91P/Russell,e,15.7510,243.3914,359.0258,3.912238,0.1273697,0.32996911,152.4010,02/12.0/2024,2000,g  7.5,6.0
# From MPEC 2014-J58
92P/Sanguin,e,19.4958,181.3778,163.8016,5.342854,0.0798076,0.66057388,260.3366,02/12.0/2024,2000,g 12.0,6.0
# From NK 2707
93P/Lovas,e,12.2047,339.5865,74.9361,4.377464,0.1076144,0.61397416,272.7451,02/12.0/2024,2000,g  9.0,4.0
# From MPEC 2024-BE0
94P/Russell,e,6.1879,70.8519,92.4073,3.510618,0.1498403,0.36566408,39.9997,02/12.0/2024,2000,g  9.0,6.0
# From MPC 75717
95P/Chiron,e,6.9225,209.1992,339.4183,13.71067,0.0194141,0.37672920,200.0060,02/12.0/2024,2000,g  6.5,2.0
# From MPEC 2023-N01
96P/Machholz,e,57.5384,93.9542,14.7430,3.030798,0.1867964,0.96161847,70.4032,02/12.0/2024,2000,g 13.0,4.8
# From MPC106348
96P-B/Machholz,e,57.5046,14.7236,93.9516,3.030157,0.1868557,0.96162322,70.4264,02/12.0/2024,2000,g 13.0,4.8
# From MPC103849
96P-C/Machholz,e,58.5311,94.3495,15.5380,3.011920,0.1885553,0.95889850,359.8715,07/14.0/2012,2000,g  9.0,4.0
# From MPEC 2024-C04
97P/Metcalf-Brewington,e,17.9491,184.0801,230.0915,4.765690,0.0947361,0.46028746,68.7824,02/12.0/2024,2000,g  5.5,6.0
# From MPEC 2021-W31
98P/Takamizawa,e,10.5699,114.6397,157.7364,3.790221,0.1335695,0.56259414,151.4551,02/12.0/2024,2000,g  9.0,8.0
# From MPEC 2024-A43
99P/Kowal,e,4.3394,28.0951,174.6878,6.097535,0.0654595,0.22853815,44.0344,02/12.0/2024,2000,g  4.5,6.0
# From MPEC 2023-OA6
100P/Hartley,e,25.5673,37.6856,181.9646,3.430576,0.1551149,0.41170678,85.3422,02/12.0/2024,2000,g  9.0,8.0
# From MPEC 2022-K19
101P/Chernykh,e,5.0494,116.2391,277.7995,5.812999,0.0703240,0.59627729,104.8205,02/12.0/2024,2000,g 10.0,4.8
# From MPC105241
101P-B/Chernykh,e,5.0499,278.5558,115.4853,5.828489,0.0700439,0.59648873,103.1575,02/12.0/2024,2000,g  9.0,4.0
# From MPEC 2022-C56
102P/Shoemaker,e,25.8725,339.4112,20.6593,3.818274,0.1321002,0.45667892,147.3601,02/12.0/2024,2000,g  6.5,8.0
# From MPEC 2024-C04
103P/Hartley,e,13.6107,219.7494,181.2992,3.474436,0.1521870,0.69373771,18.6417,02/12.0/2024,2000,g  8.5,8.0
# From MPEC 2023-G31
104P/Kowal,e,5.7031,207.2079,227.2560,3.208667,0.1714814,0.66584928,130.5158,02/12.0/2024,2000,g 16.0,4.0
# From MPEC 2024-BE0
105P/SingerBrewster,e,9.1682,192.3973,46.3686,3.471236,0.1523975,0.40889426,307.2917,02/12.0/2024,2000,g 11.5,6.0
# From MPEC 2023-UR6
106P/Schuster,e,19.5405,48.8621,353.7648,3.766905,0.1348115,0.59392282,122.2679,02/12.0/2024,2000,g 14.0,4.8
# From MPEC 2015-M77
107P/Wilson-Harrington,e,2.7986,266.7541,95.4896,2.625172,0.2317220,0.63144421,124.2958,02/12.0/2024,2000,g  9.0,4.0
# From MPEC 2022-P82
108P/Ciffreo,e,11.4362,50.2976,354.4958,3.742378,0.1361390,0.55608091,120.4310,02/12.0/2024,2000,g  8.0,12.0
# From  105, 420
109P/Swift-Tuttle,e,113.4970,139.4192,153.2007,26.21156,0.0073445,0.96256689,83.5633,02/12.0/2024,2000,g  4.0,6.0
# From MPEC 2023-KD6
110P/Hartley,e,11.7070,287.4942,167.4963,3.603942,0.1440580,0.31896965,121.9190,02/12.0/2024,2000,g  1.0,12.0
# From MPC 75718
111P/Helin-Roman-Crockett,e,4.2258,89.8142,1.1909,4.152085,0.1164943,0.10709744,112.9145,02/12.0/2024,2000,g  5.0,8.0
# From MPEC 2021-S45
112P/Urata-Niijima,e,24.2102,31.8349,21.4951,3.523708,0.1490062,0.59082346,218.0572,02/12.0/2024,2000,g 14.0,6.0
# From MPEC 2023-VM5
113P/Spitaler,e,5.2879,306.6604,115.6233,3.694076,0.1388179,0.41994662,86.1102,02/12.0/2024,2000,g 13.5,4.0
# From MPEC 2023-A50
114P/Wiseman-Skiff,e,18.2997,271.0235,172.7626,3.541782,0.1478670,0.55588286,220.1240,02/12.0/2024,2000,g 11.5,6.0
# From MPEC 2023-J29
115P/Maury,e,11.6770,176.0141,120.9735,4.272165,0.1116174,0.51758107,144.4009,02/12.0/2024,2000,g 10.5,6.0
# From MPEC 2023-VM5
116P/Wild,e,3.6035,20.9721,173.2120,3.487783,0.1513143,0.37031799,87.0553,02/12.0/2024,2000,g  2.5,10.0
# From MPEC 2024-C04
117P/Helin-Roman-Alu,e,8.7055,58.8142,223.4710,4.092698,0.1190391,0.25606022,69.2725,02/12.0/2024,2000,g  2.5,8.0
# From MPEC 2023-XP6
118P/Shoemaker-Levy,e,10.0903,142.0867,314.8794,3.348128,0.1608796,0.45369299,71.5203,02/12.0/2024,2000,g 12.0,4.0
# From MPEC 2024-BE0
119P/Parker-Hartley,e,7.3923,104.5599,322.1653,3.807199,0.1326770,0.38837940,72.8035,02/12.0/2024,2000,g  3.5,8.0
# From MPEC 2022-CN4
120P/Mueller,e,8.4872,358.7238,36.7042,3.967746,0.1247063,0.37473911,125.9793,02/12.0/2024,2000,g 12.0,4.0
# From MPEC 2024-BE0
121P/Shoemaker-Holt,e,20.1631,94.1126,11.7336,4.585494,0.1003748,0.18645969,22.8620,02/12.0/2024,2000,g  6.5,8.0
# From MPC 75718
122P/de Vico,e,85.9103,79.7209,12.9917,17.62755,0.0133173,0.96244735,138.1618,02/12.0/2024,2000,g  7.5,5.2
# From MPEC 2021-F20
123P/West-Hartley,e,15.2798,45.9033,104.0263,3.881401,0.1288906,0.44428547,237.0732,02/12.0/2024,2000,g 12.2,4.0
# From MPEC 2023-T65
124P/Mrkos,e,31.4595,0.0751,185.1899,3.372734,0.1591222,0.48691674,222.7118,02/12.0/2024,2000,g 13.5,2.8
# From MPEC 2024-C04
125P/Spacewatch,e,9.9848,153.1509,87.1401,3.129385,0.1780391,0.51214300,355.6744,02/12.0/2024,2000,g 13.0,6.0
# From MPEC 2024-C04
126P/IRAS,e,45.8707,357.8635,356.5821,5.634701,0.0736882,0.69645787,16.3373,02/12.0/2024,2000,g  6.0,8.0
# From MPEC 2024-AF0
127P/Holt-Olmstead,e,14.3007,13.6075,6.3019,3.452697,0.1536266,0.35930489,84.5853,02/12.0/2024,2000,g 11.0,6.0
# From MPC 89014
128P/Shoemaker-Holt,e,4.3703,214.3403,210.3482,4.485680,0.1037437,0.32234175,268.1537,02/12.0/2024,2000,g  8.5,4.0
# From MPEC 2024-BE0
129P/Shoemaker-Levy,e,3.4423,184.8609,307.5352,4.291430,0.1108667,0.08553024,48.5819,02/12.0/2024,2000,g 11.0,4.0
# From MPEC 2024-BE0
130P/McNaught-Hughes,e,6.0636,70.1786,246.1251,3.381457,0.1585069,0.46088605,350.0336,02/12.0/2024,2000,g 10.0,6.0
# From MPC102101
131P/Mueller,e,7.3606,214.1779,179.1122,3.677184,0.1397755,0.34491273,257.3647,02/12.0/2024,2000,g 11.0,4.0
# From MPEC 2024-BE0
132P/Helin-Roman-Alu,e,5.3815,173.9949,216.4491,3.890294,0.1284489,0.56459838,105.4249,02/12.0/2024,2000,g 11.0,6.0
# From MPC 94676
133P/Elst-Pizarro,e,1.3897,160.1015,131.9168,3.164645,0.1750719,0.15607890,344.5366,02/12.0/2024,2000,g 15.4,2.0
# From MPC 89012
134P/Kowal-Vavrova,e,4.3349,202.0123,18.7812,6.267088,0.0628211,0.58509716,224.2221,02/12.0/2024,2000,g 11.5,4.0
# From MPEC 2024-C04
135P/Shoemaker-Levy,e,6.0639,213.0191,22.3914,3.800374,0.1330346,0.29428327,89.8857,02/12.0/2024,2000,g  7.0,8.0
# From MPEC 2022-K19
136P/Mueller,e,9.4277,137.4969,225.1488,4.186502,0.1150607,0.29328079,322.4671,02/12.0/2024,2000,g 11.0,4.0
# From MPEC 2023-J29
137P/Shoemaker-Levy,e,4.8602,232.9269,141.2132,4.522293,0.1024863,0.57361167,193.1475,02/12.0/2024,2000,g 11.0,4.0
# From MPEC 2016-U66
138P/Shoemaker-Levy,e,10.0955,309.2937,95.6194,3.619050,0.1431569,0.53160963,249.6047,02/12.0/2024,2000,g 15.0,6.0
# From MPEC 2020-HN5
139P/Vaisala-Oterma,e,2.3372,242.1800,165.8339,4.516327,0.1026895,0.24830862,231.0338,02/12.0/2024,2000,g  9.5,4.0
# From MPEC 2015-E14
140P/Bowell-Skiff,e,3.7933,343.3221,172.3897,6.405951,0.0607895,0.69603256,189.8506,02/12.0/2024,2000,g 11.5,6.0
# From MPEC 2022-K19
141P/Machholz,e,13.9548,241.8106,153.6004,3.057555,0.1843498,0.73608684,212.3728,02/12.0/2024,2000,g 12.0,12.0
# From MPEC 2015-KD9
141P-A/Machholz,e,13.9437,153.5556,241.8691,3.057689,0.1843376,0.73608315,212.3263,02/12.0/2024,2000,g 12.0,12.0
# From MPC 24216
141P-B/Machholz,e,13.9876,153.6313,241.7584,3.056080,0.1844833,0.73584103,213.6810,02/12.0/2024,2000,g  9.0,4.0
# From MPC 37026
141P-D/Machholz,e,13.8358,153.2826,242.1167,3.066141,0.1835760,0.73703816,208.3054,02/12.0/2024,2000,g  9.0,4.0
# From MPEC 2015-R12
141P-E/Machholz,e,12.8152,246.1856,149.2667,3.012914,0.1884620,0.75023267,359.9529,09/19.0/1994,2000,g  9.0,4.0
# From MPEC 2015-R12
141P-F/Machholz,e,12.7898,246.1881,149.2374,3.010224,0.1887147,0.75000946,359.9630,09/19.0/1994,2000,g  9.0,4.0
# From MPEC 2015-R12
141P-G/Machholz,e,12.8259,246.3146,149.0784,3.005818,0.1891298,0.74964304,359.9802,09/19.0/1994,2000,g  9.0,4.0
# From MPC 95735
141P-H/Machholz,e,12.8431,246.0900,149.4500,3.008012,0.1889230,0.74682218,359.9270,08/24.0/2015,2000,g 18.5,4.0
# From MPEC 2022-SU8
141P-I/Machholz,e,13.9436,153.5099,241.8793,3.048171,0.1852017,0.73530851,213.4345,02/12.0/2024,2000,g 17.5,4.0
# From MPEC 2024-C04
142P/Ge-Wang,e,12.2499,175.9426,174.0689,5.002182,0.0880978,0.49666086,88.5845,02/12.0/2024,2000,g  8.5,6.0
# From MPEC 2023-XP6
143P/Kowal-Mrkos,e,4.9334,244.0422,320.7226,4.255373,0.1122788,0.42434126,237.4056,02/12.0/2024,2000,g 13.5,2.0
# From MPEC 2024-C04
144P/Kushida,e,3.9319,242.9257,216.3201,3.831216,0.1314314,0.63487939,2.2647,02/12.0/2024,2000,g  8.5,8.0
# From MPC108598
